personId,name,email,dob,address1,address2,city,state,zip,majorIds,bedId
cb669177-4020-4284-a3dc-9a0c312411d4,Linda Taylor,linda.taylor@example.com,1983-12-04,171 Spruce St,, Riverside, TX,,"8402b4cd-a049-4ae7-8649-16af0c4c8c62,37b765f0-fc71-4c9c-838b-f3a5ce0706ff",01f250f6-a3a3-492b-ba52-3f53f4483316
ba1443a2-dfeb-441b-b41d-078b36416704,Sarah Doe,sarah.doe@example.com,1986-08-31,987 Walnut St,, Georgetown, OH,,"4d0b9e50-43d1-4da0-af2b-97d510bab9e2,b43b2475-66e9-49df-b826-4dbb0bb15b8b,f6cf2da9-277c-4780-8c18-2a4727d35f64,6dfeb9a0-918b-4038-ae4f-63ab374b9311,edca0a28-476b-4782-86be-a06806d87ab8",f8ef5ea9-e2bf-4eda-9d7a-c7cdf30dc649
82a1e50c-dfd2-4190-a043-fa0013e00a57,Emily Brown,emily.brown@example.com,1988-04-15,322 Cedar St,, Salem, FL,,6b796d48-625b-4acf-96db-141d2e7d7b4b,7e9f39d1-4385-495b-b485-5bceff951057
d7f103c9-7070-4a31-9234-a53ad9a58300,David Miller,david.miller@example.com,1986-10-06,788 Spruce St,, Salem, OH,,4fc222e3-9728-408a-b24b-171c919f81ea,bc010d01-535b-44d9-a8e5-93ab9c98a026
65d6d385-ba86-450f-bc1b-c308944eb28c,John Williams,john.williams@example.com,1987-07-03,462 Cedar St,, Madison, TX,,"f6cf2da9-277c-4780-8c18-2a4727d35f64,c782f52b-d7ac-47f5-836a-376e4fccf31f",108af9fc-e263-4662-a637-3773d3355db8
0851484b-c52e-4aee-a70b-db62043c7b92,Sarah Wilson,sarah.wilson@example.com,1996-08-13,436 Elm St,, Salem, FL,,6dfeb9a0-918b-4038-ae4f-63ab374b9311,3be41337-2781-4385-858e-d8ff593d383c
93d29cd5-7748-4664-9d66-de807f7abee1,Linda Brown,linda.brown@example.com,1978-01-20,397 Elm St,, Fairview, IL,,"1eeb53c2-5e82-4c6a-a81f-bea4af78b2f8,f66e3050-2b7f-4d30-bc1e-f1c26d6a2aa2",c89eaa33-16c6-452b-8bd4-fc75f60bd220
a5992ead-879e-4ed9-8cd4-97cce9a6856f,John Miller,john.miller@example.com,1952-01-24,271 Spruce St,, Georgetown, TX,,"1eeb53c2-5e82-4c6a-a81f-bea4af78b2f8,f6cf2da9-277c-4780-8c18-2a4727d35f64,6b796d48-625b-4acf-96db-141d2e7d7b4b,3100982d-c037-4a3f-a3ed-83e66b248c8d",b1e9bd7e-cc17-436d-8c89-54978874200c
e0122280-21bc-4a87-9bea-e1584d064c65,Alice Williams,alice.williams@example.com,1985-08-27,920 Cedar St,, Georgetown, FL,,"2c4e188e-85c2-4366-b282-d70974be0631,19a8bee2-7566-411a-9919-61d44ccc81ef",ecf1f608-48ac-442b-8e5a-f95e5bf58749
f15909a1-9b5a-4726-9d91-0ac6470190cb,Sarah Moore,sarah.moore@example.com,1974-09-02,591 Birch St,, Georgetown, OH,,"12c5d420-9bbc-455d-9794-7780bc5fea5b,c782f52b-d7ac-47f5-836a-376e4fccf31f",3f841a45-7715-416d-ad00-9b458ab6fdbf
b9caf4d6-d2a6-41e4-9303-38e10bd88b4f,Michael Brown,michael.brown@example.com,1961-08-17,335 Pine St,, Riverside, NY,,"c782f52b-d7ac-47f5-836a-376e4fccf31f,f6cf2da9-277c-4780-8c18-2a4727d35f64",80a10d36-7718-40c6-86ef-ee894f021a73
fe17f82c-374e-498c-b5e2-b99071aa7ec0,James Davis,james.davis@example.com,1968-11-23,148 Birch St,, Fairview, NY,,8402b4cd-a049-4ae7-8649-16af0c4c8c62,abbc688f-b748-4af6-ad3a-115540149ca1
4f75e6ca-533d-4a93-b273-3d7db4f823e4,Bob Smith,bob.smith@example.com,1965-10-03,521 Spruce St,, Springfield, FL,,"1e0ce7f9-cbf4-44c4-bfb7-725db39d17ea,2390b2fb-f180-48d3-989d-5e359fdf867c,37979873-7c28-4b44-83ee-438c3e6810e9",655468a2-d6dc-4dd2-84ac-7f0002299386
c958ef40-8765-4b9c-b0a3-da0deb8ec08b,Linda Doe,linda.doe@example.com,1988-09-29,743 Spruce St,, Springfield, IL,,2c6e4248-da4d-4cb3-ac58-3cd04aa203fa,b452029f-43b2-425a-85bb-659367b67a82
3ff52f27-5f8e-4767-b1cd-549f2f244cc5,Emily Taylor,emily.taylor@example.com,1997-01-09,286 Spruce St,, Salem, NY,,"d3d06262-f539-4a05-9e71-6e6113e9529b,f6cf2da9-277c-4780-8c18-2a4727d35f64,dda33b53-0fff-4371-8a45-35a2192e86e8,1eeb53c2-5e82-4c6a-a81f-bea4af78b2f8,b43b2475-66e9-49df-b826-4dbb0bb15b8b",c2e2984c-72bb-4ebe-8798-25199bba2d3b
8f48922f-1c49-4c40-b94f-42df1ae16b32,Bob Doe,bob.doe@example.com,1950-08-04,446 Spruce St,, Springfield, CA,,"37b765f0-fc71-4c9c-838b-f3a5ce0706ff,19a8bee2-7566-411a-9919-61d44ccc81ef",c3c1ed1d-6d60-4a95-b26c-b477badd6cda
97ab62bb-b25a-4474-86f8-4aaf35d8f6d6,Bob Williams,bob.williams@example.com,1969-08-28,656 Maple St,, Fairview, TX,,"4d0b9e50-43d1-4da0-af2b-97d510bab9e2,bcf5b4b8-c773-40a4-9ec1-9767753c0d44,f66e3050-2b7f-4d30-bc1e-f1c26d6a2aa2,2390b2fb-f180-48d3-989d-5e359fdf867c,f6cf2da9-277c-4780-8c18-2a4727d35f64",ac531dfa-0db6-4fd7-a3f3-5d675de7c750
784ca0e6-694d-4d25-ba5d-c80178808874,Emily Wilson,emily.wilson@example.com,1991-01-05,992 Birch St,, Springfield, NY,,"dda33b53-0fff-4371-8a45-35a2192e86e8,e00c66ff-cb22-45b1-a5e8-8b3cde249016,dda33b53-0fff-4371-8a45-35a2192e86e8,e0bad25d-7fb1-4dd7-a0e8-a11b41dcd281,ad1e7d8e-5114-413f-921d-a35552003ee4",95426303-c1af-44d1-bfcd-a9c011352b6c
7ca91a24-1177-4327-9c01-a5c11e644ebd,James Taylor,james.taylor@example.com,1982-08-31,131 Birch St,, Riverside, TX,,2c6e4248-da4d-4cb3-ac58-3cd04aa203fa,83f86e21-2093-43b3-a594-4598216d5ff5
40c6de4b-3d44-4c41-96dd-6cfca9f2bcc5,Bob Taylor,bob.taylor@example.com,1977-07-09,859 Pine St,, Fairview, FL,,"37b765f0-fc71-4c9c-838b-f3a5ce0706ff,3c0ebd74-4105-4532-a321-39bc3d6ab3d8,edca0a28-476b-4782-86be-a06806d87ab8,ad1e7d8e-5114-413f-921d-a35552003ee4,49f57722-52fb-47b6-8e1e-54de177e0d19",87a98948-0ce5-4f7c-9e91-1dbc6de875e0
b3df4474-7aef-4718-b081-622d8023bfcd,David Taylor,david.taylor@example.com,1969-01-29,277 Spruce St,, Salem, CA,,6dfeb9a0-918b-4038-ae4f-63ab374b9311,7a350206-b87c-4acb-9364-f779b27ec05b
9158347f-eaf0-460c-8110-55cd38493dbb,Jane Johnson,jane.johnson@example.com,1964-03-12,284 Pine St,, Fairview, CA,,"49f57722-52fb-47b6-8e1e-54de177e0d19,3100982d-c037-4a3f-a3ed-83e66b248c8d",acb71b5d-f2ca-4b18-9b76-21967fdbbf31
7102ff6d-9774-4be3-a9dd-e400aa5b3313,Jane Davis,jane.davis@example.com,1959-03-23,862 Birch St,, Madison, OH,,"12c5d420-9bbc-455d-9794-7780bc5fea5b,49f57722-52fb-47b6-8e1e-54de177e0d19",5c47cf06-129c-4b5a-9684-fc16ccb6e794
4356331d-4657-4a7b-bbad-d88800bceffc,Sarah Smith,sarah.smith@example.com,1978-12-17,477 Cedar St,, Georgetown, TX,,f6cf2da9-277c-4780-8c18-2a4727d35f64,d30d7438-e8d7-4125-98ab-2e411a14619a
62331761-33c9-46a7-91a9-7fe0667d1dae,Sarah Brown,sarah.brown@example.com,1961-02-09,789 Birch St,, Riverside, TX,,"1eeb53c2-5e82-4c6a-a81f-bea4af78b2f8,4ae8186a-1c4d-4b5e-8e7e-385e8b3e9c79,1eeb53c2-5e82-4c6a-a81f-bea4af78b2f8",ae935949-7472-4b04-ad55-129fb6bbd764
f936e320-a908-49bc-8683-412711884553,John Taylor,john.taylor@example.com,1977-08-30,106 Birch St,, Madison, TX,,"38b9874d-dd51-433a-bea9-2ef3ec79cb21,4ae8186a-1c4d-4b5e-8e7e-385e8b3e9c79",d9d0e1da-bc81-40b5-8038-9679c7895ed5
61bfeaa6-e7db-4c31-a5d3-bc175c78c27c,Michael Taylor,michael.taylor@example.com,1957-10-25,844 Oak St,, Fairview, NY,,"cb7207d7-79d6-497f-a7e6-ceebd62576db,12c5d420-9bbc-455d-9794-7780bc5fea5b,1e0ce7f9-cbf4-44c4-bfb7-725db39d17ea,4ff85e34-9da3-47f2-beee-ec6175d82186,3100982d-c037-4a3f-a3ed-83e66b248c8d",d26eecc5-5bf4-4bfc-8e72-a6043b8d0092
0d54122e-ce34-4bac-882c-1d9b1c5d1fc7,John Wilson,john.wilson@example.com,1988-11-03,545 Cedar St,, Greenville, PA,,"37979873-7c28-4b44-83ee-438c3e6810e9,2390b2fb-f180-48d3-989d-5e359fdf867c,f6cf2da9-277c-4780-8c18-2a4727d35f64,cb7207d7-79d6-497f-a7e6-ceebd62576db",8b7d88ce-821c-4c27-8784-fea7977d432e
339c1526-9b86-407a-8b5c-6ed4c7bf7064,Linda Davis,linda.davis@example.com,1971-03-08,506 Walnut St,, Greenville, IL,,d3d06262-f539-4a05-9e71-6e6113e9529b,378c5576-5c56-4e44-8e49-be6a7401db37
98c695fe-e802-4df1-9739-285c0e475e5a,David Doe,david.doe@example.com,1992-09-08,251 Birch St,, Salem, PA,,6b796d48-625b-4acf-96db-141d2e7d7b4b,b81f7bc9-90f6-4185-ab50-e2c0699e90df
82f03452-4d79-4b76-9a1c-7040dfcec253,David Wilson,david.wilson@example.com,1992-10-03,151 Walnut St,, Fairview, FL,,"2c6e4248-da4d-4cb3-ac58-3cd04aa203fa,3100982d-c037-4a3f-a3ed-83e66b248c8d,5d92edf2-5248-4363-8e50-f18ad6a67a8c,edca0a28-476b-4782-86be-a06806d87ab8,cb7207d7-79d6-497f-a7e6-ceebd62576db",1181ac83-1fdb-4e18-b42f-a44b360a1e67
59c921b3-d2f4-485e-a392-34daf793baff,Linda Wilson,linda.wilson@example.com,1966-06-18,634 Oak St,, Greenville, OH,,"3c0ebd74-4105-4532-a321-39bc3d6ab3d8,2c6e4248-da4d-4cb3-ac58-3cd04aa203fa,4fc222e3-9728-408a-b24b-171c919f81ea,3c0ebd74-4105-4532-a321-39bc3d6ab3d8,f6cf2da9-277c-4780-8c18-2a4727d35f64",526318ba-1fd0-4ca1-b8d8-6f647cb765a8
0062654f-b7f9-4056-8c5b-3ef5726f5cd9,James Miller,james.miller@example.com,1972-03-15,573 Cedar St,, Madison, PA,,"4ff85e34-9da3-47f2-beee-ec6175d82186,b33ae65d-523e-48c6-b10e-59346e1c6523,5d92edf2-5248-4363-8e50-f18ad6a67a8c",1d8eb8d8-5029-4fb4-a85f-004215e8333d
740d3f25-087d-4103-b339-89a86bec5ead,John Moore,john.moore@example.com,1955-01-20,186 Oak St,, Madison, CA,,"edca0a28-476b-4782-86be-a06806d87ab8,2c4e188e-85c2-4366-b282-d70974be0631,f6cf2da9-277c-4780-8c18-2a4727d35f64,4ff85e34-9da3-47f2-beee-ec6175d82186,49150744-aac2-44f9-8ca0-05ae90757bac",11befeeb-17c3-4a47-9f53-02146a8753bd
e8ad3aab-24dd-4d31-ab59-ed4374eb68fc,James Smith,james.smith@example.com,1990-01-22,720 Walnut St,, Georgetown, TX,,"49f57722-52fb-47b6-8e1e-54de177e0d19,6b796d48-625b-4acf-96db-141d2e7d7b4b,f66e3050-2b7f-4d30-bc1e-f1c26d6a2aa2,3c0ebd74-4105-4532-a321-39bc3d6ab3d8",57d37ce6-9639-481b-a8a2-3c750e1bd712
4b86c4b1-c1e1-4714-9b34-0153654200c1,Alice Moore,alice.moore@example.com,1996-07-01,279 Spruce St,, Greenville, PA,,"1eeb53c2-5e82-4c6a-a81f-bea4af78b2f8,2c6e4248-da4d-4cb3-ac58-3cd04aa203fa",67466db1-4544-4812-a08d-147bf7eff4b1
eddbd1bb-485f-43a2-8ea3-b1f8e405c273,Jane Miller,jane.miller@example.com,1978-07-01,632 Walnut St,, Springfield, IL,,"38b9874d-dd51-433a-bea9-2ef3ec79cb21,19a8bee2-7566-411a-9919-61d44ccc81ef,4fc222e3-9728-408a-b24b-171c919f81ea,edca0a28-476b-4782-86be-a06806d87ab8",ea248782-1d52-4ae4-b1f5-39434757e350
4e446dda-3035-4668-a093-0968d2169354,David Johnson,david.johnson@example.com,1985-07-23,447 Pine St,, Riverside, FL,,"9dd4dfda-b0d2-4d4a-8642-a44db00f4a15,4fc222e3-9728-408a-b24b-171c919f81ea,2c4e188e-85c2-4366-b282-d70974be0631,6dfeb9a0-918b-4038-ae4f-63ab374b9311",7a619410-f070-4e7e-9d85-f98da5024af7
b6385e80-a3fc-4713-86a3-7f84a29a3156,Bob Johnson,bob.johnson@example.com,1973-01-24,230 Spruce St,, Salem, CA,,"4ff85e34-9da3-47f2-beee-ec6175d82186,f66e3050-2b7f-4d30-bc1e-f1c26d6a2aa2",9a90a3f6-d6b4-432b-b6b7-57e48c53070b
6682b160-8125-4ac5-bd1a-d01ef4c5d50f,John Brown,john.brown@example.com,1958-07-03,511 Cedar St,, Fairview, FL,,"edca0a28-476b-4782-86be-a06806d87ab8,37b765f0-fc71-4c9c-838b-f3a5ce0706ff,1eeb53c2-5e82-4c6a-a81f-bea4af78b2f8",fe2f0256-a4e7-4642-9077-ec88672b1278
759fca13-00b2-4334-9a03-ae6c166430e8,Emily Miller,emily.miller@example.com,1998-01-22,986 Pine St,, Madison, IL,,"37979873-7c28-4b44-83ee-438c3e6810e9,f6cf2da9-277c-4780-8c18-2a4727d35f64",aa19480c-081f-4c91-a5ee-ff00c4483936
891821f2-b6cf-4eb3-81f4-dc361a394f3a,Bob Davis,bob.davis@example.com,1956-06-03,136 Pine St,, Georgetown, IL,,"6b796d48-625b-4acf-96db-141d2e7d7b4b,cb7207d7-79d6-497f-a7e6-ceebd62576db",b59f9884-110e-4a16-8d2f-5bf416365bc9
7d71ab56-4b4a-4764-a432-c6c5c16b2488,David Smith,david.smith@example.com,1983-07-28,936 Oak St,, Springfield, FL,,2c6e4248-da4d-4cb3-ac58-3cd04aa203fa,2e5c0901-195f-4a3c-80ff-fc39e346e41e
3752a977-3f02-4550-9099-b1584decb51b,Michael Moore,michael.moore@example.com,1954-12-01,206 Elm St,, Riverside, TX,,"6dfeb9a0-918b-4038-ae4f-63ab374b9311,9cbfac3c-fb8a-4ebd-b677-c223a57ac329",7a4b313f-217b-4eda-86a2-4f906269bae6
d7701147-f735-4a40-8b6e-fa9c63e6dee5,Linda Johnson,linda.johnson@example.com,1980-06-20,104 Maple St,, Greenville, FL,,"9dd4dfda-b0d2-4d4a-8642-a44db00f4a15,dda33b53-0fff-4371-8a45-35a2192e86e8,1e0ce7f9-cbf4-44c4-bfb7-725db39d17ea,bcf5b4b8-c773-40a4-9ec1-9767753c0d44,9cbfac3c-fb8a-4ebd-b677-c223a57ac329",a12b8e7a-da47-465f-bff2-3086c424c49f
5277af22-3b20-4316-9aa2-06d32bb7e1b5,Michael Doe,michael.doe@example.com,1964-08-27,649 Spruce St,, Madison, IL,,"2390b2fb-f180-48d3-989d-5e359fdf867c,12c5d420-9bbc-455d-9794-7780bc5fea5b,9cbfac3c-fb8a-4ebd-b677-c223a57ac329",5d7e8a45-3416-448c-9352-918f1bc4831c
f9676d9e-dae8-4045-9f54-a06de54955c7,Jane Doe,jane.doe@example.com,1996-09-26,775 Spruce St,, Georgetown, PA,,"b43b2475-66e9-49df-b826-4dbb0bb15b8b,e0bad25d-7fb1-4dd7-a0e8-a11b41dcd281,d3d06262-f539-4a05-9e71-6e6113e9529b,8402b4cd-a049-4ae7-8649-16af0c4c8c62",a1b95833-a017-4626-b0aa-4c19501bf5b5
dab29567-062b-4544-bd95-cd3808184408,Emily Johnson,emily.johnson@example.com,1962-05-25,230 Pine St,, Fairview, NY,,"2390b2fb-f180-48d3-989d-5e359fdf867c,9cbfac3c-fb8a-4ebd-b677-c223a57ac329,9dd4dfda-b0d2-4d4a-8642-a44db00f4a15",525c9c0b-f649-4886-a9c7-a94f51593f0b
d88ebd9f-0590-493b-abd0-9076c9ba8151,Michael Miller,michael.miller@example.com,1995-09-05,132 Walnut St,, Madison, CA,,"39af2a17-08ce-4282-8dd0-de4efe79980f,3100982d-c037-4a3f-a3ed-83e66b248c8d,cb7207d7-79d6-497f-a7e6-ceebd62576db,2c6e4248-da4d-4cb3-ac58-3cd04aa203fa",fabc4332-603c-4032-bfad-e968ce709702
e0f329c7-ea6c-4a2d-9f88-0ad86e08d936,James Doe,james.doe@example.com,1956-08-20,555 Elm St,, Madison, IL,,"c782f52b-d7ac-47f5-836a-376e4fccf31f,4fc222e3-9728-408a-b24b-171c919f81ea,5d92edf2-5248-4363-8e50-f18ad6a67a8c",40868d45-6d2c-481d-9033-efa065f49ff5
48e3c65c-3aee-41ba-ba13-a93cbf978810,James Johnson,james.johnson@example.com,1990-03-11,193 Cedar St,, Greenville, FL,,"521b6a84-52f2-488c-b310-c95ae8ff1021,2c6e4248-da4d-4cb3-ac58-3cd04aa203fa,37979873-7c28-4b44-83ee-438c3e6810e9",7c422078-4a01-4ea8-9f2b-5b7d86372a11
6f4fc7cd-690b-41b2-83b2-48e5f067f250,Alice Smith,alice.smith@example.com,1960-12-14,413 Birch St,, Georgetown, CA,,"2c4e188e-85c2-4366-b282-d70974be0631,f6cf2da9-277c-4780-8c18-2a4727d35f64,b33ae65d-523e-48c6-b10e-59346e1c6523",0851e07e-e76e-4533-b8e2-62044212c4fe
134180aa-21fd-4c35-b6a8-1f56f9b831d8,John Johnson,john.johnson@example.com,1994-07-29,108 Birch St,, Madison, TX,,"9dd4dfda-b0d2-4d4a-8642-a44db00f4a15,b33ae65d-523e-48c6-b10e-59346e1c6523",2815eb97-8994-4260-9763-7e64b6eb01d0
cc459476-2743-4f18-9149-8b96fb507584,Alice Wilson,alice.wilson@example.com,1984-12-17,947 Spruce St,, Riverside, OH,,"1e0ce7f9-cbf4-44c4-bfb7-725db39d17ea,fa7f1f45-106f-4e8d-bd8c-cce0fd276256,2c4e188e-85c2-4366-b282-d70974be0631,38b9874d-dd51-433a-bea9-2ef3ec79cb21,ad1e7d8e-5114-413f-921d-a35552003ee4",cbecf776-f12b-4975-bb06-05972c74723b
c88a4cd2-e378-4ea3-9ccb-3ff3ab75a799,John Davis,john.davis@example.com,1974-05-16,735 Walnut St,, Riverside, CA,,"bcf5b4b8-c773-40a4-9ec1-9767753c0d44,6dfeb9a0-918b-4038-ae4f-63ab374b9311,b33ae65d-523e-48c6-b10e-59346e1c6523,9cbfac3c-fb8a-4ebd-b677-c223a57ac329",a10f031d-e229-4d95-a700-21469cf07261
439b90ed-d7ea-4256-a205-3ffac2f52b8b,Alice Taylor,alice.taylor@example.com,1962-02-25,793 Oak St,, Springfield, OH,,"8402b4cd-a049-4ae7-8649-16af0c4c8c62,4d0b9e50-43d1-4da0-af2b-97d510bab9e2",2da151c6-c716-4324-9f5f-130db2b0fa3d
08779a04-1771-4c43-875a-7260f34ff122,Linda Williams,linda.williams@example.com,1966-11-14,876 Pine St,, Georgetown, FL,,"4d0b9e50-43d1-4da0-af2b-97d510bab9e2,4d0b9e50-43d1-4da0-af2b-97d510bab9e2",7b7b2b22-c12f-49ad-973a-fa07bbfb8174
50e287da-ad3a-4ad2-b6d9-af2151980511,Alice Brown,alice.brown@example.com,1964-04-06,955 Cedar St,, Fairview, IL,,"12c5d420-9bbc-455d-9794-7780bc5fea5b,9dd4dfda-b0d2-4d4a-8642-a44db00f4a15",d2897207-c5ad-4fd4-bbe7-9af2dbd6621f
835736fe-a6cd-4dd4-aaa7-1b4ea7f365a4,Alice Johnson,alice.johnson@example.com,1985-07-04,109 Oak St,, Riverside, OH,,"6b796d48-625b-4acf-96db-141d2e7d7b4b,bcf5b4b8-c773-40a4-9ec1-9767753c0d44,19a8bee2-7566-411a-9919-61d44ccc81ef,1e0ce7f9-cbf4-44c4-bfb7-725db39d17ea",3116a1c9-b8b6-4e2a-a3b8-205bd148c469
c41e0adf-e5d4-441e-bba3-ab3eb01c4645,John Doe,john.doe@example.com,2000-03-17,130 Birch St,, Springfield, FL,,"f66e3050-2b7f-4d30-bc1e-f1c26d6a2aa2,2c4e188e-85c2-4366-b282-d70974be0631,3100982d-c037-4a3f-a3ed-83e66b248c8d",79c08775-d745-49fd-975d-edf8628debc5
aeb91a85-a2c2-4b9a-9ad0-f235c32447d0,Michael Smith,michael.smith@example.com,1968-04-01,859 Maple St,, Salem, OH,,"d3d06262-f539-4a05-9e71-6e6113e9529b,9dd4dfda-b0d2-4d4a-8642-a44db00f4a15,4ae8186a-1c4d-4b5e-8e7e-385e8b3e9c79,c782f52b-d7ac-47f5-836a-376e4fccf31f",c71703e9-a013-4499-b891-0e4e4a6b997c
6f4ab424-ea24-4dc3-8605-c20406a8b766,Alice Doe,alice.doe@example.com,1976-11-16,970 Maple St,, Georgetown, NY,,4fc222e3-9728-408a-b24b-171c919f81ea,27021c5f-3922-47b8-a02f-38b4bf15194b
60d6e703-3d14-47f1-b682-f7d59489c5aa,Emily Smith,emily.smith@example.com,1988-06-10,648 Spruce St,, Riverside, FL,,9dd4dfda-b0d2-4d4a-8642-a44db00f4a15,2116a2c8-4fb3-435a-ad11-3cb5bc9a3baa
83ff7527-c0ad-467f-bb4e-b90a52232ced,Bob Moore,bob.moore@example.com,1996-06-10,827 Walnut St,, Greenville, OH,,"9dd4dfda-b0d2-4d4a-8642-a44db00f4a15,c782f52b-d7ac-47f5-836a-376e4fccf31f,4fc222e3-9728-408a-b24b-171c919f81ea,12c5d420-9bbc-455d-9794-7780bc5fea5b",8d00ac36-8a10-4884-bd09-c73aadd94220
9ceb1511-0ffa-404f-9a8d-bb171ec8f0e8,Jane Brown,jane.brown@example.com,1961-09-18,301 Maple St,, Springfield, CA,,"9dd4dfda-b0d2-4d4a-8642-a44db00f4a15,dda33b53-0fff-4371-8a45-35a2192e86e8,2c4e188e-85c2-4366-b282-d70974be0631,b33ae65d-523e-48c6-b10e-59346e1c6523",8febc271-592b-4792-a1a6-bac8fcbc44f3
a8f695cd-5bf0-49c6-8b92-f7e3f46e9b4e,Bob Brown,bob.brown@example.com,1968-04-21,992 Maple St,, Springfield, FL,,"3100982d-c037-4a3f-a3ed-83e66b248c8d,6b796d48-625b-4acf-96db-141d2e7d7b4b,4ff85e34-9da3-47f2-beee-ec6175d82186",79386f80-cb13-4277-b564-72aee0ad2b9f
97af6ba1-5ade-472e-8559-9630d4c08b98,David Moore,david.moore@example.com,1975-04-04,282 Elm St,, Riverside, IL,,"2c4e188e-85c2-4366-b282-d70974be0631,12c5d420-9bbc-455d-9794-7780bc5fea5b,cb7207d7-79d6-497f-a7e6-ceebd62576db",94895c7c-21f0-4bd3-b24f-658bbefa626e
676eb082-9298-44a3-bdf4-af43ba8ad72f,Linda Miller,linda.miller@example.com,1963-05-13,507 Elm St,, Salem, IL,,37979873-7c28-4b44-83ee-438c3e6810e9,cf3c19ee-137f-4213-bba8-528f857ed1c2
1c9abe9b-559b-4b0a-ab4f-c2569a867e68,Sarah Davis,sarah.davis@example.com,2000-10-27,199 Elm St,, Springfield, TX,,f66e3050-2b7f-4d30-bc1e-f1c26d6a2aa2,9980616f-6edf-47cf-8a1f-a4f5d610ab04
5a83e89c-cbc8-4287-9d0f-1db00aaa0ca9,Michael Johnson,michael.johnson@example.com,1953-09-16,586 Oak St,, Georgetown, FL,,3100982d-c037-4a3f-a3ed-83e66b248c8d,8e2c3b62-c15e-40db-83fe-40601b570c32
7cd9c3ca-0b91-413a-9176-9ad8144f9339,James Brown,james.brown@example.com,1970-05-23,931 Cedar St,, Madison, NY,,"3c0ebd74-4105-4532-a321-39bc3d6ab3d8,bcf5b4b8-c773-40a4-9ec1-9767753c0d44",283d7681-a4d4-4538-94ab-66f1891a2cfb
77790f27-6e8f-43bf-bc6e-614216be577e,John Smith,john.smith@example.com,1951-11-18,728 Maple St,, Madison, TX,,"f66e3050-2b7f-4d30-bc1e-f1c26d6a2aa2,6b796d48-625b-4acf-96db-141d2e7d7b4b,19a8bee2-7566-411a-9919-61d44ccc81ef,c782f52b-d7ac-47f5-836a-376e4fccf31f,3100982d-c037-4a3f-a3ed-83e66b248c8d",9bdfe421-f5fe-46c9-9682-8c58ae089017
c00bf701-1f58-4670-ac0d-503ec0529d42,Sarah Taylor,sarah.taylor@example.com,1958-02-22,122 Cedar St,, Greenville, TX,,"49f57722-52fb-47b6-8e1e-54de177e0d19,d3d06262-f539-4a05-9e71-6e6113e9529b,8402b4cd-a049-4ae7-8649-16af0c4c8c62",58f25fbc-a0f1-4f13-bccc-50290e9145f9
7a34acc6-7e9d-4a48-8cde-2e89e4e36b28,Linda Smith,linda.smith@example.com,1990-01-17,588 Oak St,, Fairview, NY,,"521b6a84-52f2-488c-b310-c95ae8ff1021,f6cf2da9-277c-4780-8c18-2a4727d35f64",7d97f50c-65c4-4c86-a436-5e9d2fc5c2ff
3de6844c-2dc5-4ca3-bd1a-cb9550d06683,Bob Miller,bob.miller@example.com,1956-07-23,727 Pine St,, Springfield, IL,,"c782f52b-d7ac-47f5-836a-376e4fccf31f,39af2a17-08ce-4282-8dd0-de4efe79980f,bcf5b4b8-c773-40a4-9ec1-9767753c0d44",b094a6d2-22c7-400f-9e5a-8e50ccb9ed1e
2a829a35-e43a-4119-9839-0315f0e4bbb7,Jane Moore,jane.moore@example.com,1983-06-18,252 Elm St,, Riverside, IL,,"4fc222e3-9728-408a-b24b-171c919f81ea,4d0b9e50-43d1-4da0-af2b-97d510bab9e2,8402b4cd-a049-4ae7-8649-16af0c4c8c62,f66e3050-2b7f-4d30-bc1e-f1c26d6a2aa2,4d0b9e50-43d1-4da0-af2b-97d510bab9e2",f7153c71-a98a-455f-a4ac-ed78cedd5d6e
2c73b0e5-c782-4969-8d44-1050147c5ddf,Emily Davis,emily.davis@example.com,1977-09-30,217 Maple St,, Riverside, OH,,b43b2475-66e9-49df-b826-4dbb0bb15b8b,acd2f7a7-6bc2-4f30-baa7-32e4a9c6f30b
687bde49-3b3a-4f00-adf9-ae9e04f3a56a,Linda Moore,linda.moore@example.com,1983-11-16,917 Spruce St,, Riverside, IL,,"4d0b9e50-43d1-4da0-af2b-97d510bab9e2,19a8bee2-7566-411a-9919-61d44ccc81ef",b4cabc8f-96e9-4346-8638-f7b9e5a9d7de
c4d33385-848f-42f6-843b-220fa0b0f8fc,Michael Williams,michael.williams@example.com,1994-08-08,847 Walnut St,, Madison, TX,,"fa7f1f45-106f-4e8d-bd8c-cce0fd276256,e0bad25d-7fb1-4dd7-a0e8-a11b41dcd281",3a0cd40a-bd21-4359-9b36-c4bf30380f9b
2ad00369-9bfb-4b4e-a618-8a9e69df20e0,Jane Wilson,jane.wilson@example.com,1998-08-20,171 Maple St,, Greenville, NY,,"37b765f0-fc71-4c9c-838b-f3a5ce0706ff,9cbfac3c-fb8a-4ebd-b677-c223a57ac329",7319c504-bf8f-4a32-ab9b-eff84e7c4045
a2f6e09d-8fe5-40b6-9c59-4ed7ec8e6a3c,James Wilson,james.wilson@example.com,1965-07-07,757 Maple St,, Springfield, CA,,"49f57722-52fb-47b6-8e1e-54de177e0d19,4ae8186a-1c4d-4b5e-8e7e-385e8b3e9c79,3c0ebd74-4105-4532-a321-39bc3d6ab3d8,b33ae65d-523e-48c6-b10e-59346e1c6523,49f57722-52fb-47b6-8e1e-54de177e0d19",e03b01b7-104d-4246-aeda-1e6efbcf90e0
0e026b7a-4fe0-4a01-ac49-5227f9f6cc64,Jane Williams,jane.williams@example.com,1998-01-03,506 Spruce St,, Greenville, IL,,"4fc222e3-9728-408a-b24b-171c919f81ea,38b9874d-dd51-433a-bea9-2ef3ec79cb21",ec3d98b8-38e2-4d1a-bb63-ff005ad85e42
ef7432d8-fa09-4b90-b049-609c9351e78c,David Williams,david.williams@example.com,1965-02-11,732 Pine St,, Madison, PA,,edca0a28-476b-4782-86be-a06806d87ab8,202f95aa-1c2b-4c10-a65d-f3f1ed048b78
0b99db29-10b2-463d-9e49-fa61dd8ab53f,Alice Miller,alice.miller@example.com,1956-08-19,586 Pine St,, Riverside, TX,,"3100982d-c037-4a3f-a3ed-83e66b248c8d,37b765f0-fc71-4c9c-838b-f3a5ce0706ff,d3d06262-f539-4a05-9e71-6e6113e9529b",9e757923-f6ba-446f-8940-8a1fc62087f7
ec651100-962d-421b-84ef-48917c6c61ff,Emily Doe,emily.doe@example.com,1975-05-06,305 Spruce St,, Salem, CA,,"49f57722-52fb-47b6-8e1e-54de177e0d19,b43b2475-66e9-49df-b826-4dbb0bb15b8b,f6cf2da9-277c-4780-8c18-2a4727d35f64",0fcd48a9-e12a-4242-8154-f0e797f3d1c9
f69ba9a7-83c3-4769-b7c8-221a2e40f555,Michael Wilson,michael.wilson@example.com,1964-11-12,895 Spruce St,, Salem, TX,,4ae8186a-1c4d-4b5e-8e7e-385e8b3e9c79,aa3cdd68-d3d0-4462-a8a7-8a977e84a445
4d286565-55f2-4df6-8979-aeaa1445d35c,Sarah Johnson,sarah.johnson@example.com,1973-12-10,267 Elm St,, Riverside, NY,,"fa7f1f45-106f-4e8d-bd8c-cce0fd276256,dda33b53-0fff-4371-8a45-35a2192e86e8",2ec556ea-d649-4749-bacb-49a1bc8b1dfc
d30f0a8e-ebd3-4a2e-80bc-68aa646795eb,Sarah Williams,sarah.williams@example.com,1983-01-25,614 Spruce St,, Madison, OH,,"6b796d48-625b-4acf-96db-141d2e7d7b4b,d3d06262-f539-4a05-9e71-6e6113e9529b,4d0b9e50-43d1-4da0-af2b-97d510bab9e2,12c5d420-9bbc-455d-9794-7780bc5fea5b,b33ae65d-523e-48c6-b10e-59346e1c6523",e1c48b90-1625-4466-a3dd-5c209b38245d
0822434d-6dae-4389-a42d-eec97f0a423b,David Brown,david.brown@example.com,1956-01-08,198 Spruce St,, Greenville, TX,,"4ff85e34-9da3-47f2-beee-ec6175d82186,dda33b53-0fff-4371-8a45-35a2192e86e8,12c5d420-9bbc-455d-9794-7780bc5fea5b,ad1e7d8e-5114-413f-921d-a35552003ee4",9dab9027-731d-45b5-9224-3129ddfe1a64
f6492774-62a1-4141-a642-6fae842a82e6,David Davis,david.davis@example.com,1972-09-07,989 Pine St,, Springfield, IL,,8402b4cd-a049-4ae7-8649-16af0c4c8c62,20f357b9-e78f-4a63-b7cc-416fbe89324c
cf0ad290-f978-4af7-95c5-8444bbdb6271,Sarah Miller,sarah.miller@example.com,1950-07-17,575 Spruce St,, Fairview, FL,,4d0b9e50-43d1-4da0-af2b-97d510bab9e2,28ef4cf1-31f8-4287-8e0b-b1ae632a8e95
c9c4f3bb-ef7d-4be5-93ee-ae415dd96196,Emily Moore,emily.moore@example.com,1958-01-19,334 Elm St,, Springfield, NY,,"b33ae65d-523e-48c6-b10e-59346e1c6523,6b796d48-625b-4acf-96db-141d2e7d7b4b",546ccf62-5f1d-4135-936c-b7398b2490f3
749dac4b-6b97-4dc2-b3ad-b2c60659553f,Alice Davis,alice.davis@example.com,1965-10-23,672 Birch St,, Salem, TX,,"dda33b53-0fff-4371-8a45-35a2192e86e8,3100982d-c037-4a3f-a3ed-83e66b248c8d,2c6e4248-da4d-4cb3-ac58-3cd04aa203fa,dda33b53-0fff-4371-8a45-35a2192e86e8,12c5d420-9bbc-455d-9794-7780bc5fea5b",69443d41-131a-41e6-bab2-408bcb0077ea
1e4d6109-169f-432d-902b-e0db8375a72c,James Moore,james.moore@example.com,1957-09-11,243 Elm St,, Salem, TX,,19a8bee2-7566-411a-9919-61d44ccc81ef,4558cefe-74c5-401b-91e6-c36a60ea837b
b11f75ac-7d2a-4166-940f-3b79c8333491,Emily Williams,emily.williams@example.com,1984-09-28,863 Walnut St,, Georgetown, FL,,d3d06262-f539-4a05-9e71-6e6113e9529b,4be5f472-2708-41e7-a5a2-e71a4c579607
0aad94d5-b642-482b-a9f3-33e1383c6d79,James Williams,james.williams@example.com,1973-08-04,765 Spruce St,, Riverside, IL,,c782f52b-d7ac-47f5-836a-376e4fccf31f,d756653b-0582-48d4-9969-acbb3780da7c
4b9c0758-de62-47d6-b78c-f29e754970af,Bob Wilson,bob.wilson@example.com,1983-01-26,483 Elm St,, Fairview, PA,,"9dd4dfda-b0d2-4d4a-8642-a44db00f4a15,b33ae65d-523e-48c6-b10e-59346e1c6523,c782f52b-d7ac-47f5-836a-376e4fccf31f,5d92edf2-5248-4363-8e50-f18ad6a67a8c",67522423-d8c3-40d1-94dc-d000efb39064
c302bf4c-6e67-486c-94ec-570759640194,Jane Taylor,jane.taylor@example.com,1995-02-04,877 Spruce St,, Salem, PA,,"edca0a28-476b-4782-86be-a06806d87ab8,9dd4dfda-b0d2-4d4a-8642-a44db00f4a15,12c5d420-9bbc-455d-9794-7780bc5fea5b,f6cf2da9-277c-4780-8c18-2a4727d35f64,521b6a84-52f2-488c-b310-c95ae8ff1021",dfd5597a-28f4-4600-b260-830678b4e54c
77210eaa-22c0-4529-ba78-a86c5d39490d,Michael Davis,michael.davis@example.com,1970-05-23,103 Pine St,, Greenville, CA,,"521b6a84-52f2-488c-b310-c95ae8ff1021,4ff85e34-9da3-47f2-beee-ec6175d82186,1e0ce7f9-cbf4-44c4-bfb7-725db39d17ea,5d92edf2-5248-4363-8e50-f18ad6a67a8c",813db879-61d9-4b8b-95f7-68882d9ca33a
791556a4-8a4b-4665-9b54-329e8ff1b7ad,Jane Smith,jane.smith@example.com,1962-10-12,936 Elm St,, Madison, TX,,"19a8bee2-7566-411a-9919-61d44ccc81ef,4fc222e3-9728-408a-b24b-171c919f81ea,4fc222e3-9728-408a-b24b-171c919f81ea",d59c4a27-7c36-4499-b7b5-ab4f07959e96
